FUNCUBE-3 (EO-79)
1 40025U 14033R   26068.97393773  .00011283  00000-0  58166-3 0  9996
2 40025  98.1009  73.2758 0008367 193.7221 166.3784 15.16526525637987
CSTP-1.1
1 57202U 23091AN  26068.97631955  .00007256  00000-0  35864-3 0  9997
2 57202  97.5238 128.3525 0011255  94.9808 265.2711 15.18093425148904
