[{"OBJECT_NAME":"QB50P1","OBJECT_ID":"2014-033R","EPOCH":"2026-03-09T23:22:28.219872","MEAN_MOTION":15.16526525,"ECCENTRICITY":0.00083666,"INCLINATION":98.1009,"RA_OF_ASC_NODE":73.2758,"ARG_OF_PERICENTER":193.7221,"MEAN_ANOMALY":166.3784,"EPHEMERIS_TYPE":0,"CLASSIFICATION_TYPE":"U","NORAD_CAT_ID":40025,"ELEMENT_SET_NO":999,"REV_AT_EPOCH":63798,"BSTAR":0.00058166231,"MEAN_MOTION_DOT":0.00011283,"MEAN_MOTION_DDOT":0},{"OBJECT_NAME":"CSTP 1.1 (STC 1.1)","OBJECT_ID":"2023-091AN","EPOCH":"2026-03-09T23:25:54.009120","MEAN_MOTION":15.18093425,"ECCENTRICITY":0.00112554,"INCLINATION":97.5238,"RA_OF_ASC_NODE":128.3525,"ARG_OF_PERICENTER":94.9808,"MEAN_ANOMALY":265.2711,"EPHEMERIS_TYPE":0,"CLASSIFICATION_TYPE":"U","NORAD_CAT_ID":57202,"ELEMENT_SET_NO":999,"REV_AT_EPOCH":14890,"BSTAR":0.00035864099,"MEAN_MOTION_DOT":7.256e-5,"MEAN_MOTION_DDOT":0}]
